STARLINK-5372           
1 54838U 22177U   25227.57499212 -.00000373  00000+0 -12574-4 0  9991
2 54838  43.0005 173.0140 0000682 264.5527  95.5238 15.02534014145956
STARLINK-5368           
1 54840U 22177W   25227.56611024  .00000421  00000+0  46258-4 0  9998
2 54840  43.0023 172.9488 0001093 272.1834  87.8883 15.02537835145959
STARLINK-4659           
1 54841U 22177X   25227.57832138  .00000102  00000+0  22637-4 0  9992
2 54841  43.0031 173.0423 0001096 273.3440  86.7277 15.02532454145956
STARLINK-5387           
1 54842U 22177Y   25227.55945975  .00001386  00000+0  11764-3 0  9998
2 54842  43.0029 172.8983 0001401 264.8775  95.1908 15.02544020145955
STARLINK-5304           
1 54843U 22177Z   25227.57163538  .00002899  00000+0  22944-3 0  9990
2 54843  43.0035 172.9909 0001073 269.2845  90.7875 15.02560183145956
STARLINK-5388           
1 54844U 22177AA  25227.55500913 -.00002772  00000+0 -19015-3 0  9998
2 54844  43.0026 172.8443 0000777 278.6384  81.4370 15.02547107145959
STARLINK-5082           
1 54845U 22177AB  25227.56278696 -.00000638  00000+0 -32171-4 0  9998
2 54845  43.0010 172.9245 0000759 266.3783  93.6973 15.02543196145959
STARLINK-5360           
1 54846U 22177AC  25227.22373352  .00000386  00000+0  43647-4 0  9995
2 54846  43.0033 174.6810 0001294 263.4090  96.6605 15.02531672145902
STARLINK-5061           
1 54847U 22177AD  25227.11793046 -.00000007  00000+0  14529-4 0  9998
2 54847  43.0020 149.5940 0001188 264.2740  95.7967 15.02534986146180
STARLINK-5432           
1 54848U 22177AE  25227.15763115 -.00000195  00000+0  64876-6 0  9997
2 54848  43.0012 162.8959 0001017 267.1022  92.9703 15.02531560146032
STARLINK-5434           
1 54849U 22177AF  25227.58336806  .00350216  00000+0  41540-2 0  9998
2 54849  43.0000 152.7554 0001579 255.5990  20.9509 15.59263636  5876
STARLINK-5087           
1 54850U 22177AG  25227.21967188 -.00000392  00000+0 -13927-4 0  9992
2 54850  43.0020 162.4986 0001072 270.5710  89.5009 15.02531921146046
STARLINK-5084           
1 54851U 22177AH  25227.22300293 -.00005707  00000+0 -40751-3 0  9991
2 54851  43.0026 162.5228 0001210 257.6902 102.3805 15.02555352146048
STARLINK-5418           
1 54852U 22177AJ  25227.54539862  .00000436  00000+0  47356-4 0  9994
2 54852  43.0020 160.6431 0001037 264.7690  95.3034 15.02532178146099
STARLINK-5427           
1 54853U 22177AK  25227.54872696  .00000789  00000+0  73500-4 0  9991
2 54853  43.0024 160.6690 0001238 264.2322  95.8379 15.02533656146090
STARLINK-5416           
1 54855U 22177AM  25227.54207275 -.00000123  00000+0  59649-5 0  9990
2 54855  43.0026 160.6162 0001275 271.0210  89.0486 15.02541694145118
STARLINK-5086           
1 54856U 22177AN  25227.52210393 -.00001404  00000+0 -88925-4 0  9996
2 54856  43.0011 160.4679 0001038 268.8156  91.2567 15.02521126146095
