[{"OBJECT_NAME":"STARLINK-5372","OBJECT_ID":"2022-177U","EPOCH":"2025-08-15T13:47:59.319168","MEAN_MOTION":15.02534014,"ECCENTRICITY":6.82e-5,"INCLINATION":43.0005,"RA_OF_ASC_NODE":173.014,"ARG_OF_PERICENTER":264.5527,"MEAN_ANOMALY":95.5238,"EPHEMERIS_TYPE":0,"CLASSIFICATION_TYPE":"U","NORAD_CAT_ID":54838,"ELEMENT_SET_NO":999,"REV_AT_EPOCH":14595,"BSTAR":-1.2574e-5,"MEAN_MOTION_DOT":-3.73e-6,"MEAN_MOTION_DDOT":0},{"OBJECT_NAME":"STARLINK-5368","OBJECT_ID":"2022-177W","EPOCH":"2025-08-15T13:35:11.924736","MEAN_MOTION":15.02537835,"ECCENTRICITY":0.0001093,"INCLINATION":43.0023,"RA_OF_ASC_NODE":172.9488,"ARG_OF_PERICENTER":272.1834,"MEAN_ANOMALY":87.8883,"EPHEMERIS_TYPE":0,"CLASSIFICATION_TYPE":"U","NORAD_CAT_ID":54840,"ELEMENT_SET_NO":999,"REV_AT_EPOCH":14595,"BSTAR":4.6258e-5,"MEAN_MOTION_DOT":4.21e-6,"MEAN_MOTION_DDOT":0},{"OBJECT_NAME":"STARLINK-4659","OBJECT_ID":"2022-177X","EPOCH":"2025-08-15T13:52:46.967232","MEAN_MOTION":15.02532454,"ECCENTRICITY":0.0001096,"INCLINATION":43.0031,"RA_OF_ASC_NODE":173.0423,"ARG_OF_PERICENTER":273.344,"MEAN_ANOMALY":86.7277,"EPHEMERIS_TYPE":0,"CLASSIFICATION_TYPE":"U","NORAD_CAT_ID":54841,"ELEMENT_SET_NO":999,"REV_AT_EPOCH":14595,"BSTAR":2.2637e-5,"MEAN_MOTION_DOT":1.02e-6,"MEAN_MOTION_DDOT":0},{"OBJECT_NAME":"STARLINK-5387","OBJECT_ID":"2022-177Y","EPOCH":"2025-08-15T13:25:37.322400","MEAN_MOTION":15.0254402,"ECCENTRICITY":0.0001401,"INCLINATION":43.0029,"RA_OF_ASC_NODE":172.8983,"ARG_OF_PERICENTER":264.8775,"MEAN_ANOMALY":95.1908,"EPHEMERIS_TYPE":0,"CLASSIFICATION_TYPE":"U","NORAD_CAT_ID":54842,"ELEMENT_SET_NO":999,"REV_AT_EPOCH":14595,"BSTAR":0.00011764,"MEAN_MOTION_DOT":1.386e-5,"MEAN_MOTION_DDOT":0},{"OBJECT_NAME":"STARLINK-5304","OBJECT_ID":"2022-177Z","EPOCH":"2025-08-15T13:43:09.296832","MEAN_MOTION":15.02560183,"ECCENTRICITY":0.0001073,"INCLINATION":43.0035,"RA_OF_ASC_NODE":172.9909,"ARG_OF_PERICENTER":269.2845,"MEAN_ANOMALY":90.7875,"EPHEMERIS_TYPE":0,"CLASSIFICATION_TYPE":"U","NORAD_CAT_ID":54843,"ELEMENT_SET_NO":999,"REV_AT_EPOCH":14595,"BSTAR":0.00022944,"MEAN_MOTION_DOT":2.899e-5,"MEAN_MOTION_DDOT":0},{"OBJECT_NAME":"STARLINK-5388","OBJECT_ID":"2022-177AA","EPOCH":"2025-08-15T13:19:12.788832","MEAN_MOTION":15.02547107,"ECCENTRICITY":7.77e-5,"INCLINATION":43.0026,"RA_OF_ASC_NODE":172.8443,"ARG_OF_PERICENTER":278.6384,"MEAN_ANOMALY":81.437,"EPHEMERIS_TYPE":0,"CLASSIFICATION_TYPE":"U","NORAD_CAT_ID":54844,"ELEMENT_SET_NO":999,"REV_AT_EPOCH":14595,"BSTAR":-0.00019015,"MEAN_MOTION_DOT":-2.772e-5,"MEAN_MOTION_DDOT":0},{"OBJECT_NAME":"STARLINK-5082","OBJECT_ID":"2022-177AB","EPOCH":"2025-08-15T13:30:24.793344","MEAN_MOTION":15.02543196,"ECCENTRICITY":7.59e-5,"INCLINATION":43.001,"RA_OF_ASC_NODE":172.9245,"ARG_OF_PERICENTER":266.3783,"MEAN_ANOMALY":93.6973,"EPHEMERIS_TYPE":0,"CLASSIFICATION_TYPE":"U","NORAD_CAT_ID":54845,"ELEMENT_SET_NO":999,"REV_AT_EPOCH":14595,"BSTAR":-3.2171e-5,"MEAN_MOTION_DOT":-6.38e-6,"MEAN_MOTION_DDOT":0},{"OBJECT_NAME":"STARLINK-5360","OBJECT_ID":"2022-177AC","EPOCH":"2025-08-15T05:22:10.576128","MEAN_MOTION":15.02531672,"ECCENTRICITY":0.0001294,"INCLINATION":43.0033,"RA_OF_ASC_NODE":174.681,"ARG_OF_PERICENTER":263.409,"MEAN_ANOMALY":96.6605,"EPHEMERIS_TYPE":0,"CLASSIFICATION_TYPE":"U","NORAD_CAT_ID":54846,"ELEMENT_SET_NO":999,"REV_AT_EPOCH":14590,"BSTAR":4.3647e-5,"MEAN_MOTION_DOT":3.86e-6,"MEAN_MOTION_DDOT":0},{"OBJECT_NAME":"STARLINK-5061","OBJECT_ID":"2022-177AD","EPOCH":"2025-08-15T02:49:49.191744","MEAN_MOTION":15.02534986,"ECCENTRICITY":0.0001188,"INCLINATION":43.002,"RA_OF_ASC_NODE":149.594,"ARG_OF_PERICENTER":264.274,"MEAN_ANOMALY":95.7967,"EPHEMERIS_TYPE":0,"CLASSIFICATION_TYPE":"U","NORAD_CAT_ID":54847,"ELEMENT_SET_NO":999,"REV_AT_EPOCH":14618,"BSTAR":1.4529e-5,"MEAN_MOTION_DOT":-7.0e-8,"MEAN_MOTION_DDOT":0},{"OBJECT_NAME":"STARLINK-5432","OBJECT_ID":"2022-177AE","EPOCH":"2025-08-15T03:46:59.331360","MEAN_MOTION":15.0253156,"ECCENTRICITY":0.0001017,"INCLINATION":43.0012,"RA_OF_ASC_NODE":162.8959,"ARG_OF_PERICENTER":267.1022,"MEAN_ANOMALY":92.9703,"EPHEMERIS_TYPE":0,"CLASSIFICATION_TYPE":"U","NORAD_CAT_ID":54848,"ELEMENT_SET_NO":999,"REV_AT_EPOCH":14603,"BSTAR":6.4876e-7,"MEAN_MOTION_DOT":-1.95e-6,"MEAN_MOTION_DDOT":0},{"OBJECT_NAME":"STARLINK-5434","OBJECT_ID":"2022-177AF","EPOCH":"2025-08-15T14:00:03.000384","MEAN_MOTION":15.59263636,"ECCENTRICITY":0.0001579,"INCLINATION":43,"RA_OF_ASC_NODE":152.7554,"ARG_OF_PERICENTER":255.599,"MEAN_ANOMALY":20.9509,"EPHEMERIS_TYPE":0,"CLASSIFICATION_TYPE":"U","NORAD_CAT_ID":54849,"ELEMENT_SET_NO":999,"REV_AT_EPOCH":587,"BSTAR":0.004154,"MEAN_MOTION_DOT":0.00350216,"MEAN_MOTION_DDOT":0},{"OBJECT_NAME":"STARLINK-5087","OBJECT_ID":"2022-177AG","EPOCH":"2025-08-15T05:16:19.650432","MEAN_MOTION":15.02531921,"ECCENTRICITY":0.0001072,"INCLINATION":43.002,"RA_OF_ASC_NODE":162.4986,"ARG_OF_PERICENTER":270.571,"MEAN_ANOMALY":89.5009,"EPHEMERIS_TYPE":0,"CLASSIFICATION_TYPE":"U","NORAD_CAT_ID":54850,"ELEMENT_SET_NO":999,"REV_AT_EPOCH":14604,"BSTAR":-1.3927e-5,"MEAN_MOTION_DOT":-3.92e-6,"MEAN_MOTION_DDOT":0},{"OBJECT_NAME":"STARLINK-5084","OBJECT_ID":"2022-177AH","EPOCH":"2025-08-15T05:21:07.453152","MEAN_MOTION":15.02555352,"ECCENTRICITY":0.000121,"INCLINATION":43.0026,"RA_OF_ASC_NODE":162.5228,"ARG_OF_PERICENTER":257.6902,"MEAN_ANOMALY":102.3805,"EPHEMERIS_TYPE":0,"CLASSIFICATION_TYPE":"U","NORAD_CAT_ID":54851,"ELEMENT_SET_NO":999,"REV_AT_EPOCH":14604,"BSTAR":-0.00040751,"MEAN_MOTION_DOT":-5.707e-5,"MEAN_MOTION_DDOT":0},{"OBJECT_NAME":"STARLINK-5418","OBJECT_ID":"2022-177AJ","EPOCH":"2025-08-15T13:05:22.440768","MEAN_MOTION":15.02532178,"ECCENTRICITY":0.0001037,"INCLINATION":43.002,"RA_OF_ASC_NODE":160.6431,"ARG_OF_PERICENTER":264.769,"MEAN_ANOMALY":95.3034,"EPHEMERIS_TYPE":0,"CLASSIFICATION_TYPE":"U","NORAD_CAT_ID":54852,"ELEMENT_SET_NO":999,"REV_AT_EPOCH":14609,"BSTAR":4.7356e-5,"MEAN_MOTION_DOT":4.36e-6,"MEAN_MOTION_DDOT":0},{"OBJECT_NAME":"STARLINK-5427","OBJECT_ID":"2022-177AK","EPOCH":"2025-08-15T13:10:10.009344","MEAN_MOTION":15.02533656,"ECCENTRICITY":0.0001238,"INCLINATION":43.0024,"RA_OF_ASC_NODE":160.669,"ARG_OF_PERICENTER":264.2322,"MEAN_ANOMALY":95.8379,"EPHEMERIS_TYPE":0,"CLASSIFICATION_TYPE":"U","NORAD_CAT_ID":54853,"ELEMENT_SET_NO":999,"REV_AT_EPOCH":14609,"BSTAR":7.35e-5,"MEAN_MOTION_DOT":7.89e-6,"MEAN_MOTION_DDOT":0},{"OBJECT_NAME":"STARLINK-5416","OBJECT_ID":"2022-177AM","EPOCH":"2025-08-15T13:00:35.085600","MEAN_MOTION":15.02541694,"ECCENTRICITY":0.0001275,"INCLINATION":43.0026,"RA_OF_ASC_NODE":160.6162,"ARG_OF_PERICENTER":271.021,"MEAN_ANOMALY":89.0486,"EPHEMERIS_TYPE":0,"CLASSIFICATION_TYPE":"U","NORAD_CAT_ID":54855,"ELEMENT_SET_NO":999,"REV_AT_EPOCH":14511,"BSTAR":5.9649e-6,"MEAN_MOTION_DOT":-1.23e-6,"MEAN_MOTION_DDOT":0},{"OBJECT_NAME":"STARLINK-5086","OBJECT_ID":"2022-177AN","EPOCH":"2025-08-15T12:31:49.779552","MEAN_MOTION":15.02521126,"ECCENTRICITY":0.0001038,"INCLINATION":43.0011,"RA_OF_ASC_NODE":160.4679,"ARG_OF_PERICENTER":268.8156,"MEAN_ANOMALY":91.2567,"EPHEMERIS_TYPE":0,"CLASSIFICATION_TYPE":"U","NORAD_CAT_ID":54856,"ELEMENT_SET_NO":999,"REV_AT_EPOCH":14609,"BSTAR":-8.8925e-5,"MEAN_MOTION_DOT":-1.404e-5,"MEAN_MOTION_DDOT":0}]
